[{"OBJECT_NAME":"STARLINK-30511","OBJECT_ID":"2023-151Q","EPOCH":"2026-03-09T22:00:01.999584","MEAN_MOTION":15.26755123,"ECCENTRICITY":0.00014061,"INCLINATION":42.9997,"RA_OF_ASC_NODE":349.2941,"ARG_OF_PERICENTER":258.9465,"MEAN_ANOMALY":307.5616,"EPHEMERIS_TYPE":0,"CLASSIFICATION_TYPE":"U","NORAD_CAT_ID":57978,"ELEMENT_SET_NO":999,"REV_AT_EPOCH":577,"BSTAR":-0.00023891008,"MEAN_MOTION_DOT":-6.665e-5,"MEAN_MOTION_DDOT":0},{"OBJECT_NAME":"CZ-6A DEB","OBJECT_ID":"2022-151ADD","EPOCH":"2026-03-09T18:20:47.462208","MEAN_MOTION":15.20298953,"ECCENTRICITY":0.00285544,"INCLINATION":98.6309,"RA_OF_ASC_NODE":152.6578,"ARG_OF_PERICENTER":173.2603,"MEAN_ANOMALY":186.9019,"EPHEMERIS_TYPE":0,"CLASSIFICATION_TYPE":"U","NORAD_CAT_ID":56285,"ELEMENT_SET_NO":999,"REV_AT_EPOCH":17182,"BSTAR":0.0066325049,"MEAN_MOTION_DOT":0.00148374,"MEAN_MOTION_DDOT":0}]
